[{"OBJECT_NAME":"STARLINK-5150","OBJECT_ID":"2023-090AV","EPOCH":"2026-03-09T22:00:01.999584","MEAN_MOTION":15.1013784,"ECCENTRICITY":0.00012104,"INCLINATION":43.0005,"RA_OF_ASC_NODE":260.3876,"ARG_OF_PERICENTER":307.3924,"MEAN_ANOMALY":195.4184,"EPHEMERIS_TYPE":0,"CLASSIFICATION_TYPE":"U","NORAD_CAT_ID":57144,"ELEMENT_SET_NO":999,"REV_AT_EPOCH":578,"BSTAR":0.0046296775,"MEAN_MOTION_DOT":0.00077443,"MEAN_MOTION_DDOT":0},{"OBJECT_NAME":"COSMOS 374","OBJECT_ID":"1970-089A","EPOCH":"2026-03-09T23:19:35.282496","MEAN_MOTION":12.96748954,"ECCENTRICITY":0.09746559,"INCLINATION":62.9356,"RA_OF_ASC_NODE":4.6625,"ARG_OF_PERICENTER":50.8577,"MEAN_ANOMALY":317.503,"EPHEMERIS_TYPE":0,"CLASSIFICATION_TYPE":"U","NORAD_CAT_ID":4594,"ELEMENT_SET_NO":999,"REV_AT_EPOCH":65604,"BSTAR":0.00040579113,"MEAN_MOTION_DOT":1.091e-5,"MEAN_MOTION_DDOT":0}]
